0 COSMOS 839 DEB
1 13515U 76067BC  13281.14232993  .00000236  00000-0  10065-2 0  4720
2 13515 065.8946 091.3238 0665808 177.5169 307.1888 12.40206235505022
0 COSMOS 839 DEB
1 13515U 76067BC  13284.04194625  .00000284  00000-0  11725-2 0  4739
2 13515 065.8951 085.6559 0665691 176.3753 293.2230 12.40209053505382
0 COSMOS 839 DEB
1 13515U 76067BC  13286.78634053  .00000301  00000-0  12290-2 0  4745
2 13515 065.8958 080.2914 0665514 175.2891 306.2636 12.40211445505721
0 COSMOS 839 DEB
1 13515U 76067BC  13289.04357876  .00000329  00000-0  13269-2 0  4750
2 13515 065.8964 075.8794 0665437 174.4099 304.2755 12.40213777506001
0 COSMOS 839 DEB
1 13515U 76067BC  13292.02731748  .00000363  00000-0  14465-2 0  4764
2 13515 065.8969 070.0478 0665227 173.2420 305.9635 12.40216111506374
0 COSMOS 839 DEB
1 13515U 76067BC  13294.44561301  .00000272  00000-0  11302-2 0  4775
2 13515 065.8971 065.3213 0665021 172.3123 303.0827 12.40218647506674
